[
  {
    "COMMENT": "GENERATED VIA SPACETRACK.ORG API",
    "ORIGINATOR": "18 SPCS",
    "NORAD_CAT_ID": "20436",
    "OBJECT_NAME": "SPOT 2",
    "OBJECT_TYPE": "PAYLOAD",
    "CLASSIFICATION_TYPE": "U",
    "INTLDES": "90005A",
    "EPOCH": "2023-06-21 05:13:22",
    "EPOCH_MICROSECONDS": "990080",
    "MEAN_MOTION": "14.68116499",
    "ECCENTRICITY": "0.0140125",
    "INCLINATION": "98.6629",
    "RA_OF_ASC_NODE": "243.7534",
    "ARG_OF_PERICENTER": "271.1645",
    "MEAN_ANOMALY": "87.3508",
    "EPHEMERIS_TYPE": "0",
    "ELEMENT_SET_NO": "999",
    "REV_AT_EPOCH": "75478",
    "BSTAR": "0.00016719",
    "MEAN_MOTION_DOT": "0.00001048",
    "MEAN_MOTION_DDOT": "0",
    "FILE": "3938749",
    "TLE_LINE0": "0 SPOT 2",
    "TLE_LINE1": "1 20436U 90005A   23172.21762720  .00001048  00000-0  16719-3 0  9991",
    "TLE_LINE2": "2 20436  98.6629 243.7534 0140125 271.1645  87.3508 14.68116499754785",
    "OBJECT_ID": "1990-005A",
    "OBJECT_NUMBER": "20436",
    "SEMIMAJOR_AXIS": "7045.224",
    "PERIOD": "98.085",
    "APOGEE": "765.811",
    "PERIGEE": "568.368",
    "DECAYED": "0"
  },
  {
    "COMMENT": "GENERATED VIA SPACETRACK.ORG API",
    "ORIGINATOR": "18 SPCS",
    "NORAD_CAT_ID": "20436",
    "OBJECT_NAME": "SPOT 2",
    "OBJECT_TYPE": "PAYLOAD",
    "CLASSIFICATION_TYPE": "U",
    "INTLDES": "90005A",
    "EPOCH": "2023-06-21 11:45:57",
    "EPOCH_MICROSECONDS": "241440",
    "MEAN_MOTION": "14.68117096",
    "ECCENTRICITY": "0.0140122",
    "INCLINATION": "98.6629",
    "RA_OF_ASC_NODE": "244.042",
    "ARG_OF_PERICENTER": "270.3061",
    "MEAN_ANOMALY": "88.2087",
    "EPHEMERIS_TYPE": "0",
    "ELEMENT_SET_NO": "999",
    "REV_AT_EPOCH": "75480",
    "BSTAR": "0.00016671",
    "MEAN_MOTION_DOT": "0.00001045",
    "MEAN_MOTION_DDOT": "0",
    "FILE": "3939133",
    "TLE_LINE0": "0 SPOT 2",
    "TLE_LINE1": "1 20436U 90005A   23172.49024585  .00001045  00000-0  16671-3 0  9995",
    "TLE_LINE2": "2 20436  98.6629 244.0420 0140122 270.3061  88.2087 14.68117096754802",
    "OBJECT_ID": "1990-005A",
    "OBJECT_NUMBER": "20436",
    "SEMIMAJOR_AXIS": "7045.222",
    "PERIOD": "98.085",
    "APOGEE": "765.807",
    "PERIGEE": "568.368",
    "DECAYED": "0"
  },
  {
    "COMMENT": "GENERATED VIA SPACETRACK.ORG API",
    "ORIGINATOR": "18 SPCS",
    "NORAD_CAT_ID": "20436",
    "OBJECT_NAME": "SPOT 2",
    "OBJECT_TYPE": "PAYLOAD",
    "CLASSIFICATION_TYPE": "U",
    "INTLDES": "90005A",
    "EPOCH": "2023-06-21 18:18:31",
    "EPOCH_MICROSECONDS": "487616",
    "MEAN_MOTION": "14.6811764",
    "ECCENTRICITY": "0.0140125",
    "INCLINATION": "98.6628",
    "RA_OF_ASC_NODE": "244.3306",
    "ARG_OF_PERICENTER": "269.4481",
    "MEAN_ANOMALY": "89.0665",
    "EPHEMERIS_TYPE": "0",
    "ELEMENT_SET_NO": "999",
    "REV_AT_EPOCH": "75484",
    "BSTAR": "0.0001642",
    "MEAN_MOTION_DOT": "0.00001028",
    "MEAN_MOTION_DDOT": "0",
    "FILE": "3940263",
    "TLE_LINE0": "0 SPOT 2",
    "TLE_LINE1": "1 20436U 90005A   23172.76286444  .00001028  00000-0  16420-3 0  9992",
    "TLE_LINE2": "2 20436  98.6628 244.3306 0140125 269.4481  89.0665 14.68117640754845",
    "OBJECT_ID": "1990-005A",
    "OBJECT_NUMBER": "20436",
    "SEMIMAJOR_AXIS": "7045.221",
    "PERIOD": "98.085",
    "APOGEE": "765.807",
    "PERIGEE": "568.365",
    "DECAYED": "0"
  },
  {
    "COMMENT": "GENERATED VIA SPACETRACK.ORG API",
    "ORIGINATOR": "18 SPCS",
    "NORAD_CAT_ID": "20436",
    "OBJECT_NAME": "SPOT 2",
    "OBJECT_TYPE": "PAYLOAD",
    "CLASSIFICATION_TYPE": "U",
    "INTLDES": "90005A",
    "EPOCH": "2023-06-22 10:39:57",
    "EPOCH_MICROSECONDS": "106080",
    "MEAN_MOTION": "14.68119119",
    "ECCENTRICITY": "0.0140134",
    "INCLINATION": "98.6629",
    "RA_OF_ASC_NODE": "245.0521",
    "ARG_OF_PERICENTER": "267.303",
    "MEAN_ANOMALY": "91.2126",
    "EPHEMERIS_TYPE": "0",
    "ELEMENT_SET_NO": "999",
    "REV_AT_EPOCH": "75496",
    "BSTAR": "0.00016454",
    "MEAN_MOTION_DOT": "0.0000103",
    "MEAN_MOTION_DDOT": "0",
    "FILE": "3939869",
    "TLE_LINE0": "0 SPOT 2",
    "TLE_LINE1": "1 20436U 90005A   23173.44441095  .00001030  00000-0  16454-3 0  9993",
    "TLE_LINE2": "2 20436  98.6629 245.0521 0140134 267.3030  91.2126 14.68119119754963",
    "OBJECT_ID": "1990-005A",
    "OBJECT_NUMBER": "20436",
    "SEMIMAJOR_AXIS": "7045.216",
    "PERIOD": "98.085",
    "APOGEE": "765.808",
    "PERIGEE": "568.354",
    "DECAYED": "0"
  },
  {
    "COMMENT": "GENERATED VIA SPACETRACK.ORG API",
    "ORIGINATOR": "18 SPCS",
    "NORAD_CAT_ID": "20436",
    "OBJECT_NAME": "SPOT 2",
    "OBJECT_TYPE": "PAYLOAD",
    "CLASSIFICATION_TYPE": "U",
    "INTLDES": "90005A",
    "EPOCH": "2023-06-23 11:12:05",
    "EPOCH_MICROSECONDS": "445216",
    "MEAN_MOTION": "14.68122088",
    "ECCENTRICITY": "0.0140126",
    "INCLINATION": "98.6628",
    "RA_OF_ASC_NODE": "246.1343",
    "ARG_OF_PERICENTER": "264.0867",
    "MEAN_ANOMALY": "94.435",
    "EPHEMERIS_TYPE": "0",
    "ELEMENT_SET_NO": "999",
    "REV_AT_EPOCH": "75511",
    "BSTAR": "0.00018119",
    "MEAN_MOTION_DOT": "0.00001141",
    "MEAN_MOTION_DDOT": "0",
    "FILE": "3940739",
    "TLE_LINE0": "0 SPOT 2",
    "TLE_LINE1": "1 20436U 90005A   23174.46672969  .00001141  00000-0  18119-3 0  9995",
    "TLE_LINE2": "2 20436  98.6628 246.1343 0140126 264.0867  94.4350 14.68122088755110",
    "OBJECT_ID": "1990-005A",
    "OBJECT_NUMBER": "20436",
    "SEMIMAJOR_AXIS": "7045.206",
    "PERIOD": "98.084",
    "APOGEE": "765.793",
    "PERIGEE": "568.350",
    "DECAYED": "0"
  },
  {
    "COMMENT": "GENERATED VIA SPACETRACK.ORG API",
    "ORIGINATOR": "18 SPCS",
    "NORAD_CAT_ID": "20436",
    "OBJECT_NAME": "SPOT 2",
    "OBJECT_TYPE": "PAYLOAD",
    "CLASSIFICATION_TYPE": "U",
    "INTLDES": "90005A",
    "EPOCH": "2023-06-24 18:16:47",
    "EPOCH_MICROSECONDS": "923392",
    "MEAN_MOTION": "14.68125155",
    "ECCENTRICITY": "0.0140138",
    "INCLINATION": "98.6627",
    "RA_OF_ASC_NODE": "247.5052",
    "ARG_OF_PERICENTER": "260.0117",
    "MEAN_ANOMALY": "98.5247",
    "EPHEMERIS_TYPE": "0",
    "ELEMENT_SET_NO": "999",
    "REV_AT_EPOCH": "75530",
    "BSTAR": "0.00018279",
    "MEAN_MOTION_DOT": "0.00001152",
    "MEAN_MOTION_DDOT": "0",
    "FILE": "3941898",
    "TLE_LINE0": "0 SPOT 2",
    "TLE_LINE1": "1 20436U 90005A   23175.76166578  .00001152  00000-0  18279-3 0  9992",
    "TLE_LINE2": "2 20436  98.6627 247.5052 0140138 260.0117  98.5247 14.68125155755307",
    "OBJECT_ID": "1990-005A",
    "OBJECT_NUMBER": "20436",
    "SEMIMAJOR_AXIS": "7045.197",
    "PERIOD": "98.084",
    "APOGEE": "765.792",
    "PERIGEE": "568.332",
    "DECAYED": "0"
  },
  {
    "COMMENT": "GENERATED VIA SPACETRACK.ORG API",
    "ORIGINATOR": "18 SPCS",
    "NORAD_CAT_ID": "20436",
    "OBJECT_NAME": "SPOT 2",
    "OBJECT_TYPE": "PAYLOAD",
    "CLASSIFICATION_TYPE": "U",
    "INTLDES": "90005A",
    "EPOCH": "2023-06-25 18:48:56",
    "EPOCH_MICROSECONDS": "74176",
    "MEAN_MOTION": "14.68128119",
    "ECCENTRICITY": "0.0140154",
    "INCLINATION": "98.6627",
    "RA_OF_ASC_NODE": "248.5875",
    "ARG_OF_PERICENTER": "256.7955",
    "MEAN_ANOMALY": "101.7581",
    "EPHEMERIS_TYPE": "0",
    "ELEMENT_SET_NO": "999",
    "REV_AT_EPOCH": "75545",
    "BSTAR": "0.00019376",
    "MEAN_MOTION_DOT": "0.00001226",
    "MEAN_MOTION_DDOT": "0",
    "FILE": "3942758",
    "TLE_LINE0": "0 SPOT 2",
    "TLE_LINE1": "1 20436U 90005A   23176.78398234  .00001226  00000-0  19376-3 0  9992",
    "TLE_LINE2": "2 20436  98.6627 248.5875 0140154 256.7955 101.7581 14.68128119755458",
    "OBJECT_ID": "1990-005A",
    "OBJECT_NUMBER": "20436",
    "SEMIMAJOR_AXIS": "7045.187",
    "PERIOD": "98.084",
    "APOGEE": "765.793",
    "PERIGEE": "568.311",
    "DECAYED": "0"
  },
  {
    "COMMENT": "GENERATED VIA SPACETRACK.ORG API",
    "ORIGINATOR": "18 SPCS",
    "NORAD_CAT_ID": "20436",
    "OBJECT_NAME": "SPOT 2",
    "OBJECT_TYPE": "PAYLOAD",
    "CLASSIFICATION_TYPE": "U",
    "INTLDES": "90005A",
    "EPOCH": "2023-06-26 19:21:04",
    "EPOCH_MICROSECONDS": "145472",
    "MEAN_MOTION": "14.6813091",
    "ECCENTRICITY": "0.0140156",
    "INCLINATION": "98.6627",
    "RA_OF_ASC_NODE": "249.6698",
    "ARG_OF_PERICENTER": "253.5803",
    "MEAN_ANOMALY": "104.9956",
    "EPHEMERIS_TYPE": "0",
    "ELEMENT_SET_NO": "999",
    "REV_AT_EPOCH": "75560",
    "BSTAR": "0.00019681",
    "MEAN_MOTION_DOT": "0.00001246",
    "MEAN_MOTION_DDOT": "0",
    "FILE": "3943661",
    "TLE_LINE0": "0 SPOT 2",
    "TLE_LINE1": "1 20436U 90005A   23177.80629798  .00001246  00000-0  19681-3 0  9999",
    "TLE_LINE2": "2 20436  98.6627 249.6698 0140156 253.5803 104.9956 14.68130910755602",
    "OBJECT_ID": "1990-005A",
    "OBJECT_NUMBER": "20436",
    "SEMIMAJOR_AXIS": "7045.178",
    "PERIOD": "98.084",
    "APOGEE": "765.786",
    "PERIGEE": "568.301",
    "DECAYED": "0"
  },
  {
    "COMMENT": "GENERATED VIA SPACETRACK.ORG API",
    "ORIGINATOR": "18 SPCS",
    "NORAD_CAT_ID": "20436",
    "OBJECT_NAME": "SPOT 2",
    "OBJECT_TYPE": "PAYLOAD",
    "CLASSIFICATION_TYPE": "U",
    "INTLDES": "90005A",
    "EPOCH": "2023-06-28 04:03:54",
    "EPOCH_MICROSECONDS": "787104",
    "MEAN_MOTION": "14.68133871",
    "ECCENTRICITY": "0.0140204",
    "INCLINATION": "98.6626",
    "RA_OF_ASC_NODE": "251.1127",
    "ARG_OF_PERICENTER": "249.2968",
    "MEAN_ANOMALY": "109.316",
    "EPHEMERIS_TYPE": "0",
    "ELEMENT_SET_NO": "999",
    "REV_AT_EPOCH": "75580",
    "BSTAR": "0.00017998",
    "MEAN_MOTION_DOT": "0.00001134",
    "MEAN_MOTION_DDOT": "0",
    "FILE": "3944774",
    "TLE_LINE0": "0 SPOT 2",
    "TLE_LINE1": "1 20436U 90005A   23179.16938411  .00001134  00000-0  17998-3 0  9990",
    "TLE_LINE2": "2 20436  98.6626 251.1127 0140204 249.2968 109.3160 14.68133871755801",
    "OBJECT_ID": "1990-005A",
    "OBJECT_NUMBER": "20436",
    "SEMIMAJOR_AXIS": "7045.169",
    "PERIOD": "98.084",
    "APOGEE": "765.810",
    "PERIGEE": "568.258",
    "DECAYED": "0"
  }
]